#aV2009  5 30  0  0   .00000000      96 DD+AD WGS84 FIT  NGA
## 1533 518400.00000000   900.00000000 54981  .0000000000000
+   32     1  2  3  4  5  6  7  8  9 10 11 12 13 14 15 16 17
+         18 19 20 21 22 23 24 25 26 27 28 29 30 31 32  0  0
+          0  0  0  0  0  0  0  0  0  0  0  0  0  0  0  0  0
+          0  0  0  0  0  0  0  0  0  0  0  0  0  0  0  0  0
+          0  0  0  0  0  0  0  0  0  0  0  0  0  0  0  0  0
++         0  0  0  0  0  0  0  0  0  0  0  0  0  0  0  0  0
++         0  0  0  0  0  0  0  0  0  0  0  0  0  0  0  0  0
++         0  0  0  0  0  0  0  0  0  0  0  0  0  0  0  0  0
++         0  0  0  0  0  0  0  0  0  0  0  0  0  0  0  0  0
++         0  0  0  0  0  0  0  0  0  0  0  0  0  0  0  0  0
%c cc cc ccc ccc cccc cccc cccc cccc ccccc ccccc ccccc ccccc
%c cc cc ccc ccc cccc cccc cccc cccc ccccc ccccc ccccc ccccc
%f  0.0000000  0.000000000  0.00000000000  0.000000000000000
%f  0.0000000  0.000000000  0.00000000000  0.000000000000000
%i    0    0    0    0      0      0      0      0         0
%i    0    0    0    0      0      0      0      0         0
/*      NGA, ST. LOUIS,MO.                                  
/*   EPHEMERIS COMPUTED FROM  3 DAYS OF DATA                
/* CCCCCCCCCCCCCCCCCCCCCCCCCCCCCCCCCCCCCCCCCCCCCCCCCCCCCCCCC
/* CCCCCCCCCCCCCCCCCCCCCCCCCCCCCCCCCCCCCCCCCCCCCCCCCCCCCCCCC
*  2009  5 30  8 15   .00000000                                                 
P  1 -15022.893064  -6068.881620  20978.365960    -85.991810                    
V  1   -822.242314 -26812.548156  -8209.438785       .068511                    
P  2  -2328.695840 -17386.120900  19960.778388    155.107321                    
V  2  23320.592586  10389.466362  11303.396486       .008313                    
P  3   -961.695575  18991.787660 -18713.658170    399.831011                    
V  3 -19348.661924  13273.894473  15068.634482       .050837                    
P  4  11461.784796 -11327.103785  21027.259924   -111.861283                    
V  4  23761.522748  12894.328272  -5605.254650      -.156581                    
P  5 -14035.799866 -15504.857422  16134.867701   -106.299626                    
V  5   -921.032475 -21144.515720 -20607.330275      -.219231                    
P  6  -7296.677106  19734.118816 -15981.419611    142.508455                    
V  6 -18363.987135   9994.454842  20539.126218       .142820                    
P  7  24377.420801   5323.877523  -9298.874336     17.985476                    
V  7   9401.057550   7371.422521  28814.104426      -.006540                    
P  8  18181.377449  -3915.085991 -19207.726519   -205.432719                    
V  8  20326.514948  12853.640733  16177.709213      -.017760                    
P  9 -20223.626989 -15597.810541  -8112.436488     58.514294                    
V  9   9309.066347   2219.883360 -29824.404384       .020360                    
P 10  -1678.180868 -26291.558447  -1425.580111    -16.746400                    
V 10   3131.442162  -1713.897215  31856.315900      -.005658                    
P 11  22844.035899  12063.764564  -7109.064640     -4.494901                    
V 11  -9633.398040   1977.130725 -28065.714348      -.015371                    
P 12 -12115.222754 -17110.563997  16449.060908   -273.942161                    
V 12    713.216213 -20744.902747 -21021.016818       .055294                    
P 13  23172.099951  -4003.931971  12218.912162    298.291190                    
V 13 -12904.888536   9016.768068  27134.949810       .008407                    
P 14 -21286.618721  15383.830440   3616.275269   -102.691831                    
V 14  -4849.183630    540.709043 -31995.466061       .059115                    
P 15  -5489.344219 -14568.255739 -21491.877940   -296.469888                    
V 15  23009.251478 -14815.834127   4222.675263      -.034760                    
P 16  -1942.178625  26079.334775   3869.348032     46.555902                    
V 16  -2868.270982  -4792.783692  31580.277033      -.033966                    
P 17  21643.978401 -15091.854449   1992.255549     61.637923                    
V 17   3681.786668   1264.735808 -31713.750437       .020209                    
P 18 -15292.903490   3636.097736 -21149.115310    -52.555719                    
V 18  -1185.257406 -27475.664874  -4199.773431       .032532                    
P 19   7254.865099  13431.309759 -21668.764164     24.139155                    
V 19 -24356.907107  13159.175972    251.037757      -.011953                    
P 20  13534.791825  15121.282020  17026.420728     81.277583                    
V 20   -453.022216  22002.857746 -18998.644893      -.009990                    
P 21 -23839.544358  -2951.806291 -11728.601116     11.196412                    
V 21 -12067.147154  -9498.059527  25700.810238      -.021004                    
P 22 -12254.322414  16000.288817 -17105.379892    198.590574                    
V 22  -2491.732884 -22081.793971 -18773.024795      -.008136                    
P 23  16817.673673   5419.205294  19867.532050    390.155580                    
V 23 -20769.650321  14344.444866  13355.312630       .000775                    
P 24 -22923.787382 -13128.572955   -168.899914    192.821219                    
V 24   1361.501102  -3098.535888  31699.511157       .029494                    
P 25  24824.918608   8993.610317  -1254.463985    437.933690                    
V 25    864.358133   3268.571467  32032.088158       .188628                    
P 26 -17602.251878  -5002.087302 -20007.644512     62.450590                    
V 26  20590.055098 -12226.078801 -14984.378793       .010617                    
P 27 -15850.335821 -16501.427933 -12786.755247     53.197350                    
V 27  16726.490128   5055.632392 -25911.394697       .031488                    
P 28  12588.390057 -13403.529081 -18615.012340    -25.125103                    
V 28   2090.005453  24604.674682 -16242.485725      -.002525                    
P 29 -22597.399758   2444.479499  13815.348950     25.156635                    
V 29  13688.641263 -10938.548210  24556.345386       .037989                    
P 30 -15273.470444  -5603.923182  20641.304678    149.972848                    
V 30  -1661.292927 -27033.214592  -8336.051678       .027436                    
P 31  -8797.511909  12345.130352  22023.495311    -61.324605                    
V 31 -24359.788085 -12593.618682  -2558.214137      -.008003                    
P 32   7745.465292  22576.894772  12307.823861    254.456781                    
V 32  -2488.197577  14833.507195 -26250.977258      -.053513                    
EOF
